[{"OBJECT_NAME":"IRIDE-MS2-HEO-6","OBJECT_ID":"2025-135BA","EPOCH":"2026-03-09T21:52:31.046880","MEAN_MOTION":14.93647104,"ECCENTRICITY":0.00022697,"INCLINATION":97.7585,"RA_OF_ASC_NODE":184.4002,"ARG_OF_PERICENTER":299.868,"MEAN_ANOMALY":60.2314,"EPHEMERIS_TYPE":0,"CLASSIFICATION_TYPE":"U","NORAD_CAT_ID":64576,"ELEMENT_SET_NO":999,"REV_AT_EPOCH":3907,"BSTAR":0.00032394524,"MEAN_MOTION_DOT":3.366e-5,"MEAN_MOTION_DDOT":0},{"OBJECT_NAME":"FENGYUN 1C DEB","OBJECT_ID":"1999-025CKD","EPOCH":"2026-02-28T13:50:26.166336","MEAN_MOTION":14.88090782,"ECCENTRICITY":0.00820173,"INCLINATION":99.4445,"RA_OF_ASC_NODE":2.7077,"ARG_OF_PERICENTER":355.7359,"MEAN_ANOMALY":4.3144,"EPHEMERIS_TYPE":0,"CLASSIFICATION_TYPE":"U","NORAD_CAT_ID":31878,"ELEMENT_SET_NO":999,"REV_AT_EPOCH":99250,"BSTAR":0.001844343,"MEAN_MOTION_DOT":0.00018017,"MEAN_MOTION_DDOT":0}]
